CALSPHERE 1             
1 00900U 64063C   22206.83199285  .00000371  00000+0  38563-3 0  9993
2 00900  90.1732  41.6116 0024844 266.8448 104.5887 13.73849434875933
CALSPHERE 2             
1 00902U 64063E   22207.07923538  .00000048  00000+0  58201-4 0  9991
2 00902  90.1860  44.7232 0019671  40.5976  87.0678 13.52718848664452
LCS 1                   
1 01361U 65034C   22206.69135553  .00000015  00000+0  93503-3 0  9996
2 01361  32.1439 314.5124 0013038  11.8513 348.2290  9.89301576 69011
TEMPSAT 1               
1 01512U 65065E   22206.83132088  .00000037  00000+0  56609-4 0  9995
2 01512  89.9115 218.3396 0068031 283.1869 251.9941 13.33452503770487
CALSPHERE 4A            
1 01520U 65065H   22207.15887049  .00000075  00000+0  12689-3 0  9995
2 01520  89.9939 130.1435 0069770 152.5595 316.9386 13.35895800773235
OPS 5712 (P/L 160)      
1 02826U 67053A   22206.80235241  .00001523  00000+0  40222-3 0  9999
2 02826  69.9261 199.1246 0008529 291.0201  69.0020 14.50763344858290
OPS 5712 (P/L 153)      
1 02874U 67053H   22206.60472723 -.00000017  00000+0  26447-4 0  9990
2 02874  69.9738 283.4261 0009834 250.7192 109.2850 13.96410943808158
SURCAL 150B             
1 02909U 67053J   22206.85264369  .00002346  00000+0  45690-3 0  9997
2 02909  69.9456 186.5591 0005956 304.7320  55.3260 14.64322536869235
RIGIDSPHERE 2 (LCS 4)   
1 05398U 71067E   22206.85334683  .00000339  00000+0  11227-3 0  9998
2 05398  87.6237  12.3902 0060909 258.2657 101.1702 14.34272440669763
COSMOS 2493 (SKRL-756 1)
1 39490U 13078A   22207.48130750  .00000923  00000+0  94138-4 0  9997
2 39490  82.4176 196.7817 0016178 332.8507  27.1863 14.89518491465838
COSMOS 2494 (SKRL-756 2)
1 39491U 13078B   22207.48540186  .00000999  00000+0  98362-4 0  9992
2 39491  82.4179 190.4740 0020140 306.1363  53.7991 14.90975390466156
